CCSDS_OMM_VERS = 2.0
CREATION_DATE  = 
ORIGINATOR     = 

OBJECT_NAME    = DELTA 2 R/B(1)
OBJECT_ID      = 1990-008B
CENTER_NAME    = EARTH
REF_FRAME      = TEME
TIME_SYSTEM    = UTC
MEAN_ELEMENT_THEORY = SGP/SGP4

EPOCH          = 2025-12-07T06:11:42.065664
MEAN_MOTION    = 15.44608795
ECCENTRICITY   = .01117462
INCLINATION    = 35.6072
RA_OF_ASC_NODE = 55.9149
ARG_OF_PERICENTER = 128.5493
MEAN_ANOMALY   = 232.5316

EPHEMERIS_TYPE = 0
CLASSIFICATION_TYPE = U
NORAD_CAT_ID   = 20453
ELEMENT_SET_NO = 999
REV_AT_EPOCH   = 91178
BSTAR          = .85431089E-3
MEAN_MOTION_DOT = .52303E-3
MEAN_MOTION_DDOT = 0

CCSDS_OMM_VERS = 2.0
CREATION_DATE  = 
ORIGINATOR     = 

OBJECT_NAME    = COSMOS 2058
OBJECT_ID      = 1990-010A
CENTER_NAME    = EARTH
REF_FRAME      = TEME
TIME_SYSTEM    = UTC
MEAN_ELEMENT_THEORY = SGP/SGP4

EPOCH          = 2025-12-07T04:38:03.314688
MEAN_MOTION    = 15.10389332
ECCENTRICITY   = .00082911
INCLINATION    = 82.4646
RA_OF_ASC_NODE = 138.4866
ARG_OF_PERICENTER = 296.7440
MEAN_ANOMALY   = 63.2941

EPHEMERIS_TYPE = 0
CLASSIFICATION_TYPE = U
NORAD_CAT_ID   = 20465
ELEMENT_SET_NO = 999
REV_AT_EPOCH   = 92827
BSTAR          = .4595185E-3
MEAN_MOTION_DOT = .7578E-4
MEAN_MOTION_DDOT = 0

CCSDS_OMM_VERS = 2.0
CREATION_DATE  = 
ORIGINATOR     = 

OBJECT_NAME    = SL-14 R/B
OBJECT_ID      = 1990-010B
CENTER_NAME    = EARTH
REF_FRAME      = TEME
TIME_SYSTEM    = UTC
MEAN_ELEMENT_THEORY = SGP/SGP4

EPOCH          = 2025-12-07T06:45:55.011744
MEAN_MOTION    = 14.83463734
ECCENTRICITY   = .00184212
INCLINATION    = 82.5020
RA_OF_ASC_NODE = 354.1734
ARG_OF_PERICENTER = 242.3972
MEAN_ANOMALY   = 117.5373

EPHEMERIS_TYPE = 0
CLASSIFICATION_TYPE = U
NORAD_CAT_ID   = 20466
ELEMENT_SET_NO = 999
REV_AT_EPOCH   = 91478
BSTAR          = .97456027E-4
MEAN_MOTION_DOT = .826E-5
MEAN_MOTION_DDOT = 0

CCSDS_OMM_VERS = 2.0
CREATION_DATE  = 
ORIGINATOR     = 

OBJECT_NAME    = SL-14 R/B
OBJECT_ID      = 1990-018B
CENTER_NAME    = EARTH
REF_FRAME      = TEME
TIME_SYSTEM    = UTC
MEAN_ELEMENT_THEORY = SGP/SGP4

EPOCH          = 2025-12-07T05:03:40.594464
MEAN_MOTION    = 14.82037526
ECCENTRICITY   = .00174326
INCLINATION    = 82.5205
RA_OF_ASC_NODE = 309.5326
ARG_OF_PERICENTER = 40.6721
MEAN_ANOMALY   = 319.5791

EPHEMERIS_TYPE = 0
CLASSIFICATION_TYPE = U
NORAD_CAT_ID   = 20511
ELEMENT_SET_NO = 999
REV_AT_EPOCH   = 90888
BSTAR          = .11091008E-3
MEAN_MOTION_DOT = .906E-5
MEAN_MOTION_DDOT = 0

CCSDS_OMM_VERS = 2.0
CREATION_DATE  = 
ORIGINATOR     = 

OBJECT_NAME    = HST
OBJECT_ID      = 1990-037B
CENTER_NAME    = EARTH
REF_FRAME      = TEME
TIME_SYSTEM    = UTC
MEAN_ELEMENT_THEORY = SGP/SGP4

EPOCH          = 2025-12-07T05:46:13.384416
MEAN_MOTION    = 15.27934350
ECCENTRICITY   = .00019299
INCLINATION    = 28.4700
RA_OF_ASC_NODE = 309.9169
ARG_OF_PERICENTER = 174.2687
MEAN_ANOMALY   = 185.7931

EPHEMERIS_TYPE = 0
CLASSIFICATION_TYPE = U
NORAD_CAT_ID   = 20580
ELEMENT_SET_NO = 999
REV_AT_EPOCH   = 75915
BSTAR          = .4017333E-3
MEAN_MOTION_DOT = .11505E-3
MEAN_MOTION_DDOT = 0

CCSDS_OMM_VERS = 2.0
CREATION_DATE  = 
ORIGINATOR     = 

OBJECT_NAME    = SL-16 R/B
OBJECT_ID      = 1990-046B
CENTER_NAME    = EARTH
REF_FRAME      = TEME
TIME_SYSTEM    = UTC
MEAN_ELEMENT_THEORY = SGP/SGP4

EPOCH          = 2025-12-07T03:52:08.566464
MEAN_MOTION    = 14.15000464
ECCENTRICITY   = .00118841
INCLINATION    = 70.9985
RA_OF_ASC_NODE = 132.2365
ARG_OF_PERICENTER = 83.7556
MEAN_ANOMALY   = 276.4920

EPHEMERIS_TYPE = 0
CLASSIFICATION_TYPE = U
NORAD_CAT_ID   = 20625
ELEMENT_SET_NO = 999
REV_AT_EPOCH   = 83530
BSTAR          = .10310205E-3
MEAN_MOTION_DOT = .152E-5
MEAN_MOTION_DDOT = 0

CCSDS_OMM_VERS = 2.0
CREATION_DATE  = 
ORIGINATOR     = 

OBJECT_NAME    = COSMOS 2084
OBJECT_ID      = 1990-055A
CENTER_NAME    = EARTH
REF_FRAME      = TEME
TIME_SYSTEM    = UTC
MEAN_ELEMENT_THEORY = SGP/SGP4

EPOCH          = 2025-12-07T06:03:40.546368
MEAN_MOTION    = 15.04965475
ECCENTRICITY   = .00325835
INCLINATION    = 62.7914
RA_OF_ASC_NODE = 290.6887
ARG_OF_PERICENTER = 174.0015
MEAN_ANOMALY   = 186.1482

EPHEMERIS_TYPE = 0
CLASSIFICATION_TYPE = U
NORAD_CAT_ID   = 20663
ELEMENT_SET_NO = 999
REV_AT_EPOCH   = 92240
BSTAR          = .36608989E-3
MEAN_MOTION_DOT = .5074E-4
MEAN_MOTION_DDOT = 0

CCSDS_OMM_VERS = 2.0
CREATION_DATE  = 
ORIGINATOR     = 

OBJECT_NAME    = SL-6 R/B(2)
OBJECT_ID      = 1990-055D
CENTER_NAME    = EARTH
REF_FRAME      = TEME
TIME_SYSTEM    = UTC
MEAN_ELEMENT_THEORY = SGP/SGP4

EPOCH          = 2025-12-07T01:05:59.676576
MEAN_MOTION    = 15.03038790
ECCENTRICITY   = .00121678
INCLINATION    = 62.7825
RA_OF_ASC_NODE = 208.7625
ARG_OF_PERICENTER = 304.4836
MEAN_ANOMALY   = 55.5113

EPHEMERIS_TYPE = 0
CLASSIFICATION_TYPE = U
NORAD_CAT_ID   = 20666
ELEMENT_SET_NO = 999
REV_AT_EPOCH   = 92426
BSTAR          = .29108758E-3
MEAN_MOTION_DOT = .375E-4
MEAN_MOTION_DDOT = 0

CCSDS_OMM_VERS = 2.0
CREATION_DATE  = 
ORIGINATOR     = 

OBJECT_NAME    = SL-8 R/B
OBJECT_ID      = 1990-078B
CENTER_NAME    = EARTH
REF_FRAME      = TEME
TIME_SYSTEM    = UTC
MEAN_ELEMENT_THEORY = SGP/SGP4

EPOCH          = 2025-12-07T00:09:42.273792
MEAN_MOTION    = 14.85587422
ECCENTRICITY   = .03738472
INCLINATION    = 82.9044
RA_OF_ASC_NODE = 334.4407
ARG_OF_PERICENTER = 325.1906
MEAN_ANOMALY   = 32.5354

EPHEMERIS_TYPE = 0
CLASSIFICATION_TYPE = U
NORAD_CAT_ID   = 20775
ELEMENT_SET_NO = 999
REV_AT_EPOCH   = 79552
BSTAR          = .99271662E-3
MEAN_MOTION_DOT = .32061E-3
MEAN_MOTION_DDOT = 0

CCSDS_OMM_VERS = 2.0
CREATION_DATE  = 
ORIGINATOR     = 

OBJECT_NAME    = SL-8 R/B
OBJECT_ID      = 1991-006B
CENTER_NAME    = EARTH
REF_FRAME      = TEME
TIME_SYSTEM    = UTC
MEAN_ELEMENT_THEORY = SGP/SGP4

EPOCH          = 2025-12-07T04:13:42.777984
MEAN_MOTION    = 13.77489197
ECCENTRICITY   = .00213829
INCLINATION    = 82.9431
RA_OF_ASC_NODE = 238.8508
ARG_OF_PERICENTER = 296.3680
MEAN_ANOMALY   = 216.0332

EPHEMERIS_TYPE = 0
CLASSIFICATION_TYPE = U
NORAD_CAT_ID   = 21088
ELEMENT_SET_NO = 999
REV_AT_EPOCH   = 75133
BSTAR          = .11631906E-3
MEAN_MOTION_DOT = .131E-5
MEAN_MOTION_DDOT = 0

CCSDS_OMM_VERS = 2.0
CREATION_DATE  = 
ORIGINATOR     = 

OBJECT_NAME    = OKEAN-3
OBJECT_ID      = 1991-039A
CENTER_NAME    = EARTH
REF_FRAME      = TEME
TIME_SYSTEM    = UTC
MEAN_ELEMENT_THEORY = SGP/SGP4

EPOCH          = 2025-12-07T05:26:47.868288
MEAN_MOTION    = 15.04063073
ECCENTRICITY   = .00128454
INCLINATION    = 82.5175
RA_OF_ASC_NODE = 66.3832
ARG_OF_PERICENTER = 286.4986
MEAN_ANOMALY   = 73.4829

EPHEMERIS_TYPE = 0
CLASSIFICATION_TYPE = U
NORAD_CAT_ID   = 21397
ELEMENT_SET_NO = 999
REV_AT_EPOCH   = 85113
BSTAR          = .36614762E-3
MEAN_MOTION_DOT = .5101E-4
MEAN_MOTION_DDOT = 0

CCSDS_OMM_VERS = 2.0
CREATION_DATE  = 
ORIGINATOR     = 

OBJECT_NAME    = COSMOS 2151
OBJECT_ID      = 1991-042A
CENTER_NAME    = EARTH
REF_FRAME      = TEME
TIME_SYSTEM    = UTC
MEAN_ELEMENT_THEORY = SGP/SGP4

EPOCH          = 2025-12-07T06:50:57.098976
MEAN_MOTION    = 14.99656747
ECCENTRICITY   = .00130826
INCLINATION    = 82.4958
RA_OF_ASC_NODE = 172.7595
ARG_OF_PERICENTER = 17.6734
MEAN_ANOMALY   = 342.4942

EPHEMERIS_TYPE = 0
CLASSIFICATION_TYPE = U
NORAD_CAT_ID   = 21422
ELEMENT_SET_NO = 999
REV_AT_EPOCH   = 84934
BSTAR          = .29225327E-3
MEAN_MOTION_DOT = .3633E-4
MEAN_MOTION_DDOT = 0

