DELTA 2 R/B(1)          
1 20453U 90008B   25341.25812576  .00052303  00000+0  85431-3 0  9998
2 20453  35.6072  55.9149 0111746 128.5493 232.5316 15.44608795911781
COSMOS 2058             
1 20465U 90010A   25341.19309392  .00007578  00000+0  45952-3 0  9992
2 20465  82.4646 138.4866 0008291 296.7440  63.2941 15.10389332928275
SL-14 R/B               
1 20466U 90010B   25341.28188671  .00000826  00000+0  97456-4 0  9994
2 20466  82.5020 354.1734 0018421 242.3972 117.5373 14.83463734914788
SL-14 R/B               
1 20511U 90018B   25341.21088651  .00000906  00000+0  11091-3 0  9992
2 20511  82.5205 309.5326 0017432  40.6721 319.5791 14.82037526908884
HST                     
1 20580U 90037B   25341.24043269  .00011505  00000+0  40173-3 0  9998
2 20580  28.4700 309.9169 0001929 174.2687 185.7931 15.27934350759151
SL-16 R/B               
1 20625U 90046B   25341.16121026  .00000152  00000+0  10310-3 0  9993
2 20625  70.9985 132.2365 0011884  83.7556 276.4920 14.15000464835307
COSMOS 2084             
1 20663U 90055A   25341.25255262  .00005074  00000+0  36609-3 0  9992
2 20663  62.7914 290.6887 0032583 174.0015 186.1482 15.04965475922400
SL-6 R/B(2)             
1 20666U 90055D   25341.04582959  .00003750  00000+0  29109-3 0  9994
2 20666  62.7825 208.7625 0012167 304.4836  55.5113 15.03038790924266
SL-8 R/B                
1 20775U 90078B   25341.00673928  .00032061  00000+0  99272-3 0  9998
2 20775  82.9044 334.4407 0373847 325.1906  32.5354 14.85587422795529
SL-8 R/B                
1 21088U 91006B   25341.17618956  .00000131  00000+0  11632-3 0  9993
2 21088  82.9431 238.8508 0021382 296.3680 216.0332 13.77489197751334
OKEAN-3                 
1 21397U 91039A   25341.22694292  .00005101  00000+0  36615-3 0  9995
2 21397  82.5175  66.3832 0012845 286.4986  73.4829 15.04063073851133
COSMOS 2151             
1 21422U 91042A   25341.28538309  .00003633  00000+0  29225-3 0  9997
2 21422  82.4958 172.7595 0013082  17.6734 342.4942 14.99656747849341
